[
    {
        "Altitude(m)": 702828.2956324777,
        "Argument of Periapsis(deg)": 0.006834072711976239,
        "Eccentricity": 0.0,
        "Inclination(deg)": 45.0,
        "Latitude(deg)": 6.636586679839416,
        "Longitude(deg)": -172.0975048575705,
        "Mean Anomaly(deg)": 170.55632998848856,
        "RAAN(deg)": 114.99354883512507,
        "Satellite Name": "Constellation 1 516",
        "Satellite Number": 516,
        "Semi-Major Axis(m)": 7083131.272910544,
        "Time(s)": 114
    },
    {
        "Altitude(m)": 702830.7164676688,
        "Argument of Periapsis(deg)": 0.006894020718221645,
        "Eccentricity": 0.0,
        "Inclination(deg)": 45.0,
        "Latitude(deg)": 6.593656088675173,
        "Longitude(deg)": -172.05817475149968,
        "Mean Anomaly(deg)": 170.61703112873838,
        "RAAN(deg)": 114.9934922459595,
        "Satellite Name": "Constellation 1 516",
        "Satellite Number": 516,
        "Semi-Major Axis(m)": 7083131.272910544,
        "Time(s)": 115
    },
    {
        "Altitude(m)": 702833.1578319654,
        "Argument of Periapsis(deg)": 0.006953968724467052,
        "Eccentricity": 0.0,
        "Inclination(deg)": 45.0,
        "Latitude(deg)": 6.550721695543086,
        "Longitude(deg)": -172.0188521667599,
        "Mean Anomaly(deg)": 170.6777322689883,
        "RAAN(deg)": 114.99343565679392,
        "Satellite Name": "Constellation 1 516",
        "Satellite Number": 516,
        "Semi-Major Axis(m)": 7083131.272910544,
        "Time(s)": 116
    },
    {
        "Altitude(m)": 702835.619733078,
        "Argument of Periapsis(deg)": 0.007013916730712457,
        "Eccentricity": 0.0,
        "Inclination(deg)": 45.0,
        "Latitude(deg)": 6.507783526490578,
        "Longitude(deg)": -171.97953705375605,
        "Mean Anomaly(deg)": 170.73843340923818,
        "RAAN(deg)": 114.99337906762837,
        "Satellite Name": "Constellation 1 516",
        "Satellite Number": 516,
        "Semi-Major Axis(m)": 7083131.272910544,
        "Time(s)": 117
    },
    {
        "Altitude(m)": 702838.1021786339,
        "Argument of Periapsis(deg)": 0.007073864736957864,
        "Eccentricity": 0.0,
        "Inclination(deg)": 45.0,
        "Latitude(deg)": 6.464841607550578,
        "Longitude(deg)": -171.9402293629092,
        "Mean Anomaly(deg)": 170.79913454948812,
        "RAAN(deg)": 114.9933224784628,
        "Satellite Name": "Constellation 1 516",
        "Satellite Number": 516,
        "Semi-Major Axis(m)": 7083131.272910544,
        "Time(s)": 118
    },
    {
        "Altitude(m)": 702840.6051761586,
        "Argument of Periapsis(deg)": 0.0071338127432032696,
        "Eccentricity": 0.0,
        "Inclination(deg)": 45.0,
        "Latitude(deg)": 6.421895964742265,
        "Longitude(deg)": -171.90092921275416,
        "Mean Anomaly(deg)": 170.85983568973805,
        "RAAN(deg)": 114.99326588929722,
        "Satellite Name": "Constellation 1 516",
        "Satellite Number": 516,
        "Semi-Major Axis(m)": 7083131.272910544,
        "Time(s)": 119
    },
    {
        "Altitude(m)": 702843.1287330965,
        "Argument of Periapsis(deg)": 0.007193760749448674,
        "Eccentricity": 0.0,
        "Inclination(deg)": 45.0,
        "Latitude(deg)": 6.378946624069623,
        "Longitude(deg)": -171.8616362175503,
        "Mean Anomaly(deg)": 170.92053682998787,
        "RAAN(deg)": 114.99320930013165,
        "Satellite Name": "Constellation 1 516",
        "Satellite Number": 516,
        "Semi-Major Axis(m)": 7083131.272910544,
        "Time(s)": 120
    },
    {
        "Altitude(m)": 702845.6728568015,
        "Argument of Periapsis(deg)": 0.007253708755694079,
        "Eccentricity": 0.0,
        "Inclination(deg)": 45.0,
        "Latitude(deg)": 6.335993611523426,
        "Longitude(deg)": -171.82235049586427,
        "Mean Anomaly(deg)": 170.98123797023786,
        "RAAN(deg)": 114.9931527109661,
        "Satellite Name": "Constellation 1 516",
        "Satellite Number": 516,
        "Semi-Major Axis(m)": 7083131.272910544,
        "Time(s)": 121
    },
    {
        "Altitude(m)": 702848.2375545308,
        "Argument of Periapsis(deg)": 0.0073136567619394854,
        "Eccentricity": 0.0,
        "Inclination(deg)": 45.0,
        "Latitude(deg)": 6.293036953080421,
        "Longitude(deg)": -171.78307199818167,
        "Mean Anomaly(deg)": 171.0419391104877,
        "RAAN(deg)": 114.9930961218005,
        "Satellite Name": "Constellation 1 516",
        "Satellite Number": 516,
        "Semi-Major Axis(m)": 7083131.272910544,
        "Time(s)": 122
    },
    {
        "Altitude(m)": 702850.8228334624,
        "Argument of Periapsis(deg)": 0.0073736047681848904,
        "Eccentricity": 0.0,
        "Inclination(deg)": 45.0,
        "Latitude(deg)": 6.250076674703214,
        "Longitude(deg)": -171.74380067500385,
        "Mean Anomaly(deg)": 171.1026402507376,
        "RAAN(deg)": 114.99303953263495,
        "Satellite Name": "Constellation 1 516",
        "Satellite Number": 516,
        "Semi-Major Axis(m)": 7083131.272910544,
        "Time(s)": 123
    },
    {
        "Altitude(m)": 702853.4287006739,
        "Argument of Periapsis(deg)": 0.007433552774430298,
        "Eccentricity": 0.0,
        "Inclination(deg)": 45.0,
        "Latitude(deg)": 6.207112802340969,
        "Longitude(deg)": -171.70453647684812,
        "Mean Anomaly(deg)": 171.16334139098745,
        "RAAN(deg)": 114.99298294346936,
        "Satellite Name": "Constellation 1 516",
        "Satellite Number": 516,
        "Semi-Major Axis(m)": 7083131.272910544,
        "Time(s)": 124
    },
    {
        "Altitude(m)": 702856.0551631555,
        "Argument of Periapsis(deg)": 0.007493500780675703,
        "Eccentricity": 0.0,
        "Inclination(deg)": 45.0,
        "Latitude(deg)": 6.164145361928741,
        "Longitude(deg)": -171.66527935424693,
        "Mean Anomaly(deg)": 171.2240425312374,
        "RAAN(deg)": 114.9929263543038,
        "Satellite Name": "Constellation 1 516",
        "Satellite Number": 516,
        "Semi-Major Axis(m)": 7083131.272910544,
        "Time(s)": 125
    },
    {
        "Altitude(m)": 702858.702227809,
        "Argument of Periapsis(deg)": 0.007553448786921108,
        "Eccentricity": 0.0,
        "Inclination(deg)": 45.0,
        "Latitude(deg)": 6.1211743793887345,
        "Longitude(deg)": -171.626029425846,
        "Mean Anomaly(deg)": 171.2847436714873,
        "RAAN(deg)": 114.99286976513825,
        "Satellite Name": "Constellation 1 516",
        "Satellite Number": 516,
        "Semi-Major Axis(m)": 7083131.272910544,
        "Time(s)": 126
    },
    {
        "Altitude(m)": 702861.3699014441,
        "Argument of Periapsis(deg)": 0.007613396793166514,
        "Eccentricity": 0.0,
        "Inclination(deg)": 45.0,
        "Latitude(deg)": 6.078199880628461,
        "Longitude(deg)": -171.58678630601474,
        "Mean Anomaly(deg)": 171.3454448117372,
        "RAAN(deg)": 114.99281317597266,
        "Satellite Name": "Constellation 1 516",
        "Satellite Number": 516,
        "Semi-Major Axis(m)": 7083131.272910544,
        "Time(s)": 127
    },
    {
        "Altitude(m)": 702864.0581907762,
        "Argument of Periapsis(deg)": 0.007673344799411918,
        "Eccentricity": 0.0,
        "Inclination(deg)": 45.0,
        "Latitude(deg)": 6.0352218915432285,
        "Longitude(deg)": -171.54755011342957,
        "Mean Anomaly(deg)": 171.4061459519871,
        "RAAN(deg)": 114.9927565868071,
        "Satellite Name": "Constellation 1 516",
        "Satellite Number": 516,
        "Semi-Major Axis(m)": 7083131.272910544,
        "Time(s)": 128
    },
    {
        "Altitude(m)": 702866.7671024407,
        "Argument of Periapsis(deg)": 0.007733292805657325,
        "Eccentricity": 0.0,
        "Inclination(deg)": 45.0,
        "Latitude(deg)": 5.99224043801441,
        "Longitude(deg)": -171.50832079868457,
        "Mean Anomaly(deg)": 171.46684709223703,
        "RAAN(deg)": 114.99269999764155,
        "Satellite Name": "Constellation 1 516",
        "Satellite Number": 516,
        "Semi-Major Axis(m)": 7083131.272910544,
        "Time(s)": 129
    },
    {
        "Altitude(m)": 702869.496642971,
        "Argument of Periapsis(deg)": 0.00779324081190273,
        "Eccentricity": 0.0,
        "Inclination(deg)": 45.0,
        "Latitude(deg)": 5.949255545910501,
        "Longitude(deg)": -171.4690983123894,
        "Mean Anomaly(deg)": 171.5275482324869,
        "RAAN(deg)": 114.99264340847596,
        "Satellite Name": "Constellation 1 516",
        "Satellite Number": 516,
        "Semi-Major Axis(m)": 7083131.272910544,
        "Time(s)": 130
    },
    {
        "Altitude(m)": 702872.2468188198,
        "Argument of Periapsis(deg)": 0.007853188818148135,
        "Eccentricity": 0.0,
        "Inclination(deg)": 45.0,
        "Latitude(deg)": 5.906267241086727,
        "Longitude(deg)": -171.42988260516861,
        "Mean Anomaly(deg)": 171.58824937273675,
        "RAAN(deg)": 114.9925868193104,
        "Satellite Name": "Constellation 1 516",
        "Satellite Number": 516,
        "Semi-Major Axis(m)": 7083131.272910544,
        "Time(s)": 131
    },
    {
        "Altitude(m)": 702875.017636339,
        "Argument of Periapsis(deg)": 0.007913136824393542,
        "Eccentricity": 0.0,
        "Inclination(deg)": 45.0,
        "Latitude(deg)": 5.8632755493852144,
        "Longitude(deg)": -171.39067362766156,
        "Mean Anomaly(deg)": 171.64895051298674,
        "RAAN(deg)": 114.99253023014481,
        "Satellite Name": "Constellation 1 516",
        "Satellite Number": 516,
        "Semi-Major Axis(m)": 7083131.272910544,
        "Time(s)": 132
    }
]